OBJECT_NAME,OBJECT_ID,EPOCH,MEAN_MOTION,ECCENTRICITY,INCLINATION,RA_OF_ASC_NODE,ARG_OF_PERICENTER,MEAN_ANOMALY,EPHEMERIS_TYPE,CLASSIFICATION_TYPE,NORAD_CAT_ID,ELEMENT_SET_NO,REV_AT_EPOCH,BSTAR,MEAN_MOTION_DOT,MEAN_MOTION_DDOT
USA 167,2003-008A,2026-07-22T03:53:51.995904,1.00270441,.00033639,11.0289,43.0897,315.6164,237.8618,0,U,27691,999,712,0,-.1E-7,0
USA 169 (MILSTAR-2 4),2003-012A,2026-07-22T10:35:35.802240,1.00273017,.00994251,12.4018,29.5494,10.6066,211.0987,0,U,27711,999,3330,0,-.201E-5,0
ASIASAT 4,2003-014A,2026-07-22T10:58:38.649792,1.00270879,.00027733,4.7908,75.2980,48.2609,128.8485,0,U,27718,999,4565,0,-.223E-5,0
HELLAS-SAT 2,2003-020A,2026-07-22T07:51:07.317792,1.00272512,.00041288,7.4394,67.4590,86.0710,254.2922,0,U,27811,999,4319,0,-.87E-6,0
THURAYA-2,2003-026A,2026-07-22T02:58:36.082272,1.00270879,.00023306,8.8919,31.8083,27.7369,328.9917,0,U,27825,999,8469,0,.122E-5,0
OPTUS C1,2003-028B,2026-07-22T12:16:38.465184,1.00274502,.00057455,6.9755,68.9769,48.4889,162.6277,0,U,27831,999,5341,0,-.154E-5,0
USA 170,2003-040A,2026-07-22T06:18:17.858880,1.00277553,.00020422,10.5728,47.6100,74.7442,296.5722,0,U,27875,999,3335,0,.122E-5,0
GALAXY 13 (HORIZONS-1),2003-044A,2026-07-22T12:08:38.715360,1.00274562,.00020711,1.5072,83.4010,43.7835,205.2425,0,U,27954,999,4692,0,.135E-5,0
YAMAL 202,2003-053A,2026-07-22T12:00:38.512800,1.00271616,.00032152,6.4291,70.5063,49.4870,163.9352,0,U,28089,999,8305,0,-.83E-6,0
UFO 11 (USA 174),2003-057A,2026-07-22T00:45:51.579936,1.00270705,.0002798,8.9587,33.6327,106.2489,246.9067,0,U,28117,999,8279,0,-.107E-5,0
USA 176 (DSP 22),2004-004A,2026-07-22T03:04:14.778048,1.00264099,.00009731,12.1090,25.8073,311.0037,319.5004,0,U,28158,999,3328,0,-.302E-5,0
ABS-4 (MOBISAT-1),2004-007A,2026-07-22T03:03:28.116000,1.00275128,.00045422,6.1265,71.5757,54.0778,281.1046,0,U,28184,999,5268,0,.36E-6,0
INTELSAT 10-02,2004-022A,2026-07-22T07:53:44.566656,1.00274136,.00003969,0.0589,256.1997,250.6356,270.6769,0,U,28358,999,8090,0,-.7E-7,0
ANIK F2,2004-027A,2026-07-22T09:41:38.617152,1.00272550,.00037853,3.3762,78.9776,35.7458,219.7100,0,U,28378,999,4161,0,-.49E-6,0
AMC-15,2004-041A,2026-07-22T05:54:38.492640,1.00272204,.00024708,0.0431,284.5186,195.1943,163.8877,0,U,28446,999,7965,0,-.85E-6,0
NSS-10,2005-003A,2026-07-22T02:21:38.752416,1.00271646,.00028972,6.5349,70.0260,48.4008,179.3770,0,U,28526,999,5350,0,-.254E-5,0
INMARSAT 4-F1,2005-009A,2026-07-22T07:02:07.149984,1.00273162,.00028733,5.2162,42.7960,73.5770,107.2988,0,U,28628,999,7802,0,.32E-6,0
DIRECTV 8,2005-019A,2026-07-22T10:45:23.391360,1.00273309,.00032162,0.0144,78.4596,47.9335,216.0994,0,U,28659,999,7742,0,.4E-7,0
GALAXY 28 (G-28),2005-022A,2026-07-22T11:11:35.879136,1.00271783,.00023209,3.3861,78.4939,40.7127,321.8074,0,U,28702,999,5233,0,-.2E-5,0
THAICOM 4,2005-028A,2026-07-22T12:48:38.791584,1.00273443,.00017563,0.3342,85.4942,8.0486,158.4027,0,U,28786,999,5260,0,-.359E-5,0
ANIK F1R,2005-036A,2026-07-22T10:21:38.824704,1.00272539,.00039848,4.4004,76.1411,24.3152,247.8255,0,U,28868,999,4680,0,-.75E-6,0
SYRACUSE 3A,2005-041B,2026-07-22T02:59:21.010272,1.00271481,.00025807,4.7276,75.4042,39.6290,276.3022,0,U,28885,999,7609,0,.128E-5,0
INMARSAT 4-F2,2005-044A,2026-07-22T10:17:31.655040,1.00271931,.00029839,5.1407,43.6883,61.6125,132.7507,0,U,28899,999,7587,0,-.261E-5,0
METEOSAT-9 (MSG-2),2005-049B,2026-07-21T19:21:26.284608,1.00275911,.00024788,9.4377,53.8213,0.0905,221.7142,0,U,28912,999,734,0,.119E-5,0
EUTELSAT 174A,2005-052A,2026-07-22T12:47:38.600160,1.00273685,.00061156,4.3057,76.0887,44.6446,185.4156,0,U,28924,999,5268,0,.9E-7,0
ECHOSTAR 10,2006-003A,2026-07-22T11:40:38.727840,1.00271647,.00016142,0.0563,280.3643,171.4444,273.3916,0,U,28935,999,7481,0,-.52E-6,0
SPAINSAT,2006-007A,2026-07-22T06:00:55.926720,1.00272632,.00049518,0.6516,85.9746,30.5972,243.4664,0,U,28945,999,7456,0,-.214E-5,0
JCSAT-5A,2006-010A,2026-07-22T14:13:53.258592,1.00271123,.00019592,1.1982,83.8150,29.8615,172.1755,0,U,29045,999,7412,0,-.325E-5,0
ASTRA 1KR,2006-012A,2026-07-22T07:59:29.015808,1.00274371,.00035659,0.5622,83.1844,30.1198,325.6542,0,U,29055,999,4604,0,.122E-5,0
GALAXY 16 (G-16),2006-023A,2026-07-22T10:51:07.841376,1.00272761,.00028037,0.0261,130.0905,351.3460,242.5340,0,U,29236,999,7332,0,-.123E-5,0
EUTELSAT 33F,2006-032A,2026-07-22T11:28:41.740032,1.00269384,.0003538,1.7504,81.8518,28.1723,35.4572,0,U,29270,999,4766,0,.157E-5,0
JCSAT-3A,2006-033A,2026-07-22T12:40:38.595936,1.00270422,.00024181,0.0245,299.9867,185.0668,133.3765,0,U,29272,999,4809,0,-.341E-5,0
