{"epoch":1784762836,"count":18316,"objects":[{"id":"27691","name":"USA 167","type":"PAYLOAD","l1":"1 27691U 03008A   26203.16240736 -.00000001  00000-0  00000-0 0  9990","l2":"2 27691  11.0289  43.0897 0003364 315.6164 237.8618  1.00270441  7125"},{"id":"27711","name":"USA 169","type":"PAYLOAD","l1":"1 27711U 03012A   26203.44138660 -.00000201  00000-0  00000-0 0  9993","l2":"2 27711  12.4018  29.5494 0099425  10.6066 211.0987  1.00273017 33305"},{"id":"27718","name":"ASIASAT 4","type":"PAYLOAD","l1":"1 27718U 03014A   26203.45739178 -.00000223  00000-0  00000-0 0  9998","l2":"2 27718   4.7908  75.2980 0002773  48.2609 128.8485  1.00270879 45654"},{"id":"27811","name":"HELLAS-SAT 2","type":"PAYLOAD","l1":"1 27811U 03020A   26203.32716803 -.00000087  00000-0  00000-0 0  9993","l2":"2 27811   7.4394  67.4590 0004129  86.0710 254.2922  1.00272512 43190"},{"id":"27825","name":"THURAYA 2","type":"PAYLOAD","l1":"1 27825U 03026A   26203.12402873  .00000122  00000-0  00000-0 0  9990","l2":"2 27825   8.8919  31.8083 0002331  27.7369 328.9917  1.00270879 84697"},{"id":"27831","name":"OPTUS C1","type":"PAYLOAD","l1":"1 27831U 03028B   26203.51155631 -.00000154  00000-0  00000-0 0  9995","l2":"2 27831   6.9755  68.9769 0005745  48.4889 162.6277  1.00274502 53417"},{"id":"27875","name":"USA 170","type":"PAYLOAD","l1":"1 27875U 03040A   26203.26270670  .00000122  00000-0  00000-0 0  9994","l2":"2 27875  10.5728  47.6100 0002042  74.7442 296.5722  1.00277553 33355"},{"id":"27954","name":"HORIZONS 1 (GALAXY 13)","type":"PAYLOAD","l1":"1 27954U 03044A   26203.50600365  .00000135  00000-0  00000-0 0  9995","l2":"2 27954   1.5072  83.4010 0002071  43.7835 205.2425  1.00274562 46928"},{"id":"28089","name":"YAMAL 202","type":"PAYLOAD","l1":"1 28089U 03053A   26203.50044575 -.00000083  00000-0  00000-0 0  9993","l2":"2 28089   6.4291  70.5063 0003215  49.4870 163.9352  1.00271616 83054"},{"id":"28117","name":"UFO 11 (USA 174)","type":"PAYLOAD","l1":"1 28117U 03057A   26203.03184699 -.00000107  00000-0  00000-0 0  9996","l2":"2 28117   8.9587  33.6327 0002798 106.2489 246.9067  1.00270705 82790"},{"id":"28158","name":"USA 176","type":"PAYLOAD","l1":"1 28158U 04004A   26203.12794882 -.00000302  00000-0  00000-0 0  9992","l2":"2 28158  12.1090  25.8073 0000973 311.0037 319.5004  1.00264099 33287"},{"id":"28184","name":"ABS 4 (MBSAT)","type":"PAYLOAD","l1":"1 28184U 04007A   26203.12740875  .00000036  00000-0  00000-0 0  9990","l2":"2 28184   6.1265  71.5757 0004542  54.0778 281.1046  1.00275128 52682"},{"id":"28358","name":"INTELSAT 1002","type":"PAYLOAD","l1":"1 28358U 04022A   26203.32898804 -.00000007  00000-0  00000-0 0  9997","l2":"2 28358   0.0589 256.1997 0000397 250.6356 270.6769  1.00274136 80903"},{"id":"28378","name":"ANIK F2","type":"PAYLOAD","l1":"1 28378U 04027A   26203.40391918 -.00000049  00000-0  00000-0 0  9993","l2":"2 28378   3.3762  78.9776 0003785  35.7458 219.7100  1.00272550 41614"},{"id":"28446","name":"AMC-15","type":"PAYLOAD","l1":"1 28446U 04041A   26203.24627885 -.00000085  00000-0  00000-0 0  9992","l2":"2 28446   0.0431 284.5186 0002471 195.1943 163.8877  1.00272204 79659"},{"id":"28526","name":"NSS 10 (AMC-12)","type":"PAYLOAD","l1":"1 28526U 05003A   26203.09836519 -.00000254  00000-0  00000-0 0  9997","l2":"2 28526   6.5349  70.0260 0002897  48.4008 179.3770  1.00271646 53501"},{"id":"28628","name":"INMARSAT 4-F1","type":"PAYLOAD","l1":"1 28628U 05009A   26203.29313831  .00000032  00000-0  00000-0 0  9998","l2":"2 28628   5.2162  42.7960 0002873  73.5770 107.2988  1.00273162 78025"},{"id":"28659","name":"DIRECTV 8","type":"PAYLOAD","l1":"1 28659U 05019A   26203.44818740  .00000004  00000-0  00000-0 0  9998","l2":"2 28659   0.0144  78.4596 0003216  47.9335 216.0994  1.00273309 77429"},{"id":"28702","name":"GALAXY 28 (IA 8)","type":"PAYLOAD","l1":"1 28702U 05022A   26203.46638749 -.00000200  00000-0  00000-0 0  9991","l2":"2 28702   3.3861  78.4939 0002321  40.7127 321.8074  1.00271783 52338"},{"id":"28786","name":"IPSTAR 1","type":"PAYLOAD","l1":"1 28786U 05028A   26203.53378231 -.00000359  00000-0  00000-0 0  9999","l2":"2 28786   0.3342  85.4942 0001756   8.0486 158.4027  1.00273443 52606"},{"id":"28868","name":"ANIK F1-R","type":"PAYLOAD","l1":"1 28868U 05036A   26203.43169936 -.00000075  00000-0  00000-0 0  9993","l2":"2 28868   4.4004  76.1411 0003985  24.3152 247.8255  1.00272539 46808"},{"id":"28885","name":"SYRACUSE 3A","type":"PAYLOAD","l1":"1 28885U 05041B   26203.12454873  .00000128  00000-0  00000-0 0  9999","l2":"2 28885   4.7276  75.4042 0002581  39.6290 276.3022  1.00271481 76094"},{"id":"28899","name":"INMARSAT 4-F2","type":"PAYLOAD","l1":"1 28899U 05044A   26203.42883860 -.00000261  00000-0  00000-0 0  9991","l2":"2 28899   5.1407  43.6883 0002984  61.6125 132.7507  1.00271931 75877"},{"id":"28912","name":"METEOSAT 9 (MSG 2)","type":"PAYLOAD","l1":"1 28912U 05049B   26202.80655422  .00000119  00000-0  00000-0 0  9995","l2":"2 28912   9.4377  53.8213 0002479   0.0905 221.7142  1.00275911  7341"},{"id":"28924","name":"EUTE 172A (GE 23)","type":"PAYLOAD","l1":"1 28924U 05052A   26203.53308565  .00000009  00000-0  00000-0 0  9994","l2":"2 28924   4.3057  76.0887 0006116  44.6446 185.4156  1.00273685 52687"},{"id":"28935","name":"ECHOSTAR 10","type":"PAYLOAD","l1":"1 28935U 06003A   26203.48655935 -.00000052  00000-0  00000-0 0  9992","l2":"2 28935   0.0563 280.3643 0001614 171.4444 273.3916  1.00271647 74815"},{"id":"28945","name":"SPAINSAT","type":"PAYLOAD","l1":"1 28945U 06007A   26203.25064730 -.00000214  00000-0  00000-0 0  9999","l2":"2 28945   0.6516  85.9746 0004952  30.5972 243.4664  1.00272632 74567"},{"id":"29045","name":"JCSAT 9","type":"PAYLOAD","l1":"1 29045U 06010A   26203.59297753 -.00000325  00000-0  00000-0 0  9998","l2":"2 29045   1.1982  83.8150 0001959  29.8615 172.1755  1.00271123 74122"},{"id":"29055","name":"ASTRA 1KR","type":"PAYLOAD","l1":"1 29055U 06012A   26203.33297472  .00000122  00000-0  00000-0 0  9995","l2":"2 29055   0.5622  83.1844 0003566  30.1198 325.6542  1.00274371 46044"},{"id":"29236","name":"GALAXY 16","type":"PAYLOAD","l1":"1 29236U 06023A   26203.45217409 -.00000123  00000-0  00000-0 0  9995","l2":"2 29236   0.0261 130.0905 0002804 351.3460 242.5340  1.00272761 73328"},{"id":"29270","name":"EUTE HOT BIRD 13B (HB 8)","type":"PAYLOAD","l1":"1 29270U 06032A   26203.47826088  .00000157  00000-0  00000-0 0  9990","l2":"2 29270   1.7504  81.8518 0003538  28.1723  35.4572  1.00269384 47664"},{"id":"29272","name":"JCSAT 10","type":"PAYLOAD","l1":"1 29272U 06033A   26203.52822449 -.00000341  00000-0  00000-0 0  9992","l2":"2 29272   0.0245 299.9867 0002418 185.0668 133.3765  1.00270422 48091"}]}